     3.05           N: GNSS NAV DATA    C: COMPASS          RINEX VERSION / TYPE
JPS2RIN v.2.1.237   JAVAD GNSS          20260605 101053 UTC PGM / RUN BY / DATE
    18                                                      LEAP SECONDS
BDSA   2.5146D-08  1.7881D-07 -1.4305D-06  2.1458D-06 I  1  IONOSPHERIC CORR
BDSB   1.5770D+05 -9.6666D+05  6.4225D+06 -5.0463D+06 I  1  IONOSPHERIC CORR
BDSA   2.5146D-08  1.7881D-07 -1.4305D-06  2.1458D-06 J  1  IONOSPHERIC CORR
BDSB   1.5770D+05 -9.6666D+05  6.4225D+06 -5.0463D+06 J  1  IONOSPHERIC CORR
BDSA   2.3183D-41  2.3273D-41  2.3149D-41  6.9191D-41 U  1  IONOSPHERIC CORR
BDSB   6.8428D-41  2.2510D-41  2.2802D-41  2.1979D-32 U  1  IONOSPHERIC CORR
BDSA   2.5146D-08  1.7881D-07 -1.4305D-06  2.1458D-06 J  2  IONOSPHERIC CORR
BDSB   1.5770D+05 -9.6666D+05  6.4225D+06 -5.0463D+06 J  2  IONOSPHERIC CORR
BDSA   2.5146D-08  1.7881D-07 -1.4305D-06  2.1458D-06 J  4  IONOSPHERIC CORR
BDSB   1.5770D+05 -9.6666D+05  6.4225D+06 -5.0463D+06 J  4  IONOSPHERIC CORR
BDSA   2.3283D-08  2.0117D-07 -1.4901D-06  2.2054D-06 K  4  IONOSPHERIC CORR
BDSB   1.5974D+05 -9.6666D+05  6.3570D+06 -5.0463D+06 K  4  IONOSPHERIC CORR
BDSA   2.3183D-41  2.3273D-41  2.3149D-41  6.9191D-41 U  4  IONOSPHERIC CORR
BDSB   6.8428D-41  2.2510D-41  2.2802D-41  2.1979D-32 U  4  IONOSPHERIC CORR
BDSA   3.2596D-08  6.7055D-08 -1.0133D-06  1.5497D-06 K 29  IONOSPHERIC CORR
BDSB   1.1264D+05  2.6214D+05 -3.9322D+05  6.5536D+04 K 29  IONOSPHERIC CORR
BDSA   2.3183D-41  2.3273D-41  2.3149D-41  6.9191D-41 U 29  IONOSPHERIC CORR
BDSB   6.8428D-41  2.2510D-41  2.2802D-41  2.1979D-32 U 29  IONOSPHERIC CORR
BDSA   2.5146D-08  1.7881D-07 -1.4305D-06  2.1458D-06 J 31  IONOSPHERIC CORR
BDSB   1.5770D+05 -9.6666D+05  6.4225D+06 -5.0463D+06 J 31  IONOSPHERIC CORR
BDSA   2.3183D-41  2.3273D-41  2.3149D-41  6.9191D-41 U 31  IONOSPHERIC CORR
BDSB   6.8428D-41  2.2510D-41  2.2802D-41  2.1979D-32 U 31  IONOSPHERIC CORR
BDSA   2.5146D-08  1.7881D-07 -1.4305D-06  2.1458D-06 J 37  IONOSPHERIC CORR
BDSB   1.5770D+05 -9.6666D+05  6.4225D+06 -5.0463D+06 J 37  IONOSPHERIC CORR
BDSA   2.3183D-41  2.3273D-41  2.3149D-41  6.9191D-41 U 37  IONOSPHERIC CORR
BDSB   6.8428D-41  2.2510D-41  2.2802D-41  2.1979D-32 U 37  IONOSPHERIC CORR
BDSA   2.5146D-08  1.7881D-07 -1.4305D-06  2.1458D-06 J 40  IONOSPHERIC CORR
BDSB   1.5770D+05 -9.6666D+05  6.4225D+06 -5.0463D+06 J 40  IONOSPHERIC CORR
BDSA   2.5146D-08  1.7881D-07 -1.4305D-06  2.1458D-06 J 40  IONOSPHERIC CORR
BDSB   1.5770D+05 -9.6666D+05  6.4225D+06 -5.0463D+06 J 40  IONOSPHERIC CORR
BDSA   2.3183D-41  2.3273D-41  2.3149D-41  6.9191D-41 U 40  IONOSPHERIC CORR
BDSB   6.8428D-41  2.2510D-41  2.2802D-41  2.1979D-32 U 40  IONOSPHERIC CORR
BDUT  0.0000000000D+00 0.000000000D+00      0 1065          TIME SYSTEM CORR
                                                            END OF HEADER
C35 2026 06 05 10 00 00-4.149967571720D-04-1.560618301255D-11 0.000000000000D+00
     1.000000000000D+00 8.051562500000D+01 3.980880105350D-09 1.565185971593D+00
     3.912951797247D-06 8.884355193004D-04 8.563511073589D-06 5.282623277664D+03
     4.680000000000D+05-2.374872565269D-08 9.056103112874D-01 2.607703208923D-08
     9.443440825101D-01 1.795781250000D+02 8.915021970449D-01-6.791711473473D-09
    -2.232235838726D-10 0.000000000000D+00 1.065000000000D+03
     2.000000000000D+00 0.000000000000D+00-2.700000000000D-09-2.700000000000D-09
     4.680000000000D+05 0.000000000000D+00
C36 2026 06 05 10 00 00 2.752485452220D-04-3.738342968518D-12 0.000000000000D+00
     1.000000000000D+00 1.226562500000D+01 4.378753821244D-09 1.557671356407D-01
     5.895271897316D-07 8.024153066799D-04 6.851740181446D-06 5.282645856857D+03
     4.680000000000D+05-2.468004822731D-08-1.148267223402D+00-1.396983861923D-08
     9.449587290040D-01 2.122968750000D+02-1.102069989387D+00-6.978862126191D-09
     3.410856361573D-10 0.000000000000D+00 1.065000000000D+03
     2.000000000000D+00 0.000000000000D+00-2.070000000000D-08-2.070000000000D-08
     4.680000000000D+05 0.000000000000D+00
C37 2026 06 05 10 00 00-9.367945604026D-04 7.935874180021D-12 0.000000000000D+00
     1.000000000000D+00 6.093750000000D+00 4.434113270044D-09 1.097509601212D+00
     2.649612724781D-07 6.609262200072D-04 7.092952728271D-06 5.282662828445D+03
     4.680000000000D+05 2.468004822731D-08-1.148403513239D+00-2.933666110039D-08
     9.449726003933D-01 2.143593750000D+02-4.434640155534D-01-6.935646040354D-09
     3.482287908412D-10 0.000000000000D+00 1.065000000000D+03
     2.000000000000D+00 0.000000000000D+00-1.680000000000D-08-1.680000000000D-08
     4.680000000000D+05 0.000000000000D+00
C40 2026 06 05 10 00 00-3.864980535582D-04-4.125588759507D-12 0.000000000000D+00
     1.000000000000D+00 8.734375000000D+00 4.318037006431D-09-3.891632920875D-01
     5.322508513927D-07 8.487055310979D-04 6.827525794506D-06 5.282640293121D+03
     4.680000000000D+05 1.071020960808D-08-1.140772923760D+00-2.980232238770D-08
     9.489325294545D-01 2.191875000000D+02 2.392001025244D-01-6.908502052555D-09
     3.485859485754D-10 0.000000000000D+00 1.065000000000D+03
     2.000000000000D+00 0.000000000000D+00 1.810000000000D-08 1.810000000000D-08
     4.680000000000D+05 0.000000000000D+00
